LYNK TOWER 4            
1 55034U 23001AB  26068.67743801  .00009160  00000+0  30014-3 0  9997
2 55034  97.3324 128.5940 0010321 112.3386 247.8950 15.31819885176588
STARLINK-31969          
1 59889U 24100E   26068.47012503 -.00001487  00000+0 -44529-4 0  9999
2 59889  43.0022 123.1512 0000846 208.8511 151.2294 15.27573262101163
